HYPERFIELD-1A           
1 60562U 24149CY  26068.76488211  .00008569  00000+0  30052-3 0  9998
2 60562  97.3842 149.5066 0003865 313.7844  46.3076 15.29681349 86836
STARLINK-35916          
1 66504U 25263V   26067.81924720  .00031780  00000+0  11589-2 0  9997
2 66504  42.9965 359.2903 0000642 328.5572  31.5241 15.27594257 18724
